[{"type": "node", "id": 60647148, "lat": 47.4859603, "lon": 9.5598603, "tags": {"aerodrome": "regional", "aerodrome:type": "private", "aeroway": "aerodrome", "alt_name": "Business Airport St.Gallen - Altenrhein", "ele": "398", "iata": "ACH", "icao": "LSZR", "name": "Flugplatz St. Gallen-Altenrhein", "passengers": "80000", "ref": "ACH", "wikidata": "Q689836", "wikipedia": "en:St. Gallen\u2013Altenrhein Airport"}}, {"type": "node", "id": 256570718, "lat": 47.6898021, "lon": 8.5272352, "tags": {"aeroway": "aerodrome", "closest_city": "Schaffhausen", "icao": "LSPF", "name": "Sportflugplatz Schmerlat", "website": "https://www.schmerlat.ch/", "wikidata": "Q25625539"}}, {"type": "node", "id": 289344453, "lat": 47.1831409, "lon": 7.7421839, "tags": {"aerodrome": "regional", "aeroway": "aerodrome", "icao": "LSPL", "name": "Flugplatz Langenthal-Bleienbach"}}, {"type": "node", "id": 364736401, "lat": 46.5949417, "lon": 7.0942542, "tags": {"aeroway": "aerodrome", "icao": "LSGT", "name": "A\u00e9rodrome de la Gruy\u00e8re", "name:de": "Flugplatz Gruy\u00e8res", "name:en": "La Gruy\u00e8re Airfield", "operator": "Soci\u00e9t\u00e9 d\u2019Aviation de la Gruy\u00e8re S.A.", "website": "http://www.aerodrome-gruyere.ch/", "wikidata": "Q1433614", "wikipedia": "de:Flugplatz Gruy\u00e8res"}}, {"type": "node", "id": 1042047734, "lat": 46.2977926, "lon": 8.9915572, "tags": {"aeroway": "aerodrome", "icao": "LSPR", "name": "Lodrino Air Base", "wikidata": "Q17332225", "wikipedia": "en:Lodrino_Air_Base"}}, {"type": "node", "id": 1042047735, "lat": 46.8432007, "lon": 6.91506, "tags": {"aerodrome:type": "military", "aeroway": "aerodrome", "iata": "VIP", "icao": "LSMP", "name": "Base a\u00e9rienne de Payerne", "name:de": "Milit\u00e4rflugplatz Payerne", "wikidata": "Q10853633", "wikipedia": "en:Payerne Airport"}}, {"type": "node", "id": 1042047738, "lat": 46.5125008, "lon": 8.6897802, "tags": {"aeroway": "aerodrome", "icao": "LSPM", "name": "Ambri Airfield", "wikidata": "Q4741719"}}, {"type": "node", "id": 1042047740, "lat": 46.4803009, "lon": 8.2633305, "tags": {"aeroway": "aerodrome", "icao": "LSPU", "name": "Flugplatz M\u00fcnster Aero", "name:en": "Muenster Aero Airfield", "wikidata": "Q23783848", "wikipedia": "de:Milit\u00e4rflugplatz M\u00fcnster VS"}}, {"type": "node", "id": 1042047746, "lat": 46.2351167, "lon": 9.0987005, "tags": {"aeroway": "aerodrome", "name": "EX San Vittore Airport", "source": "ourairports.com"}}, {"type": "node", "id": 1042047747, "lat": 46.9744444, "lon": 8.3969444, "tags": {"addr:city": "Buochs", "addr:housenumber": "20", "addr:postcode": "6374", "addr:street": "Fadenbr\u00fccke", "aeroway": "aerodrome", "email": "info@airportbuochs.ch", "iata": "BXO", "icao": "LSZC", "name": "Flugplatz Buochs", "name:de": "Flugplatz Buochs", "name:en": "Buochs Airport", "operator": "AIRPORT BUOCHS AG", "phone": "+41 41 622 06 11", "source": "ourairports.com", "wikidata": "Q1433540"}}, {"type": "node", "id": 1042047752, "lat": 47.1836014, "lon": 7.0908298, "tags": {"aeroway": "aerodrome", "icao": "LSZJ", "internet_access": "wlan", "name": "Courtelary A\u00e9rodrome", "operator": "Segelfluggruppe Biel, GVVC", "source": "ourairports.com", "wikidata": "Q12692329"}}, {"type": "node", "id": 1042047753, "lat": 47.2386017, "lon": 8.5155602, "tags": {"aeroway": "aerodrome", "alt_name": "Flugplatz Hausen am Albis", "icao": "LSZN", "name": "Flugfeld Hausen am Albis", "name:en": "Hausen am Albis Airfield"}}, {"type": "node", "id": 1330848848, "lat": 46.3210237, "lon": 7.2311362, "tags": {"aeroway": "aerodrome", "alt_name": "Altiport glaciaire des Diablerets", "name": "Altisurface du Glacier de Tsanfleuron"}}, {"type": "node", "id": 2492270604, "lat": 47.0906738, "lon": 7.2910323, "tags": {"aeroway": "aerodrome", "icao": "LSZP", "name": "Flugplatz Biel-Kappelen", "ref": "LSZP", "wikidata": "Q20463931"}}, {"type": "node", "id": 2710666063, "lat": 45.9908937, "lon": 7.0226015, "tags": {"aeroway": "aerodrome", "icao": "LSYX", "name": "Altisurface du Glacier du Trient", "source": "survey"}}, {"type": "node", "id": 3422042677, "lat": 46.0642891, "lon": 7.3543167, "tags": {"aeroway": "aerodrome", "name": "Altisurface du Glacier de Prasfleuri", "source": "survey"}}, {"type": "node", "id": 4515193747, "lat": 47.3430829, "lon": 7.8871933, "tags": {"aerodrome:type": "gliding", "aeroway": "aerodrome", "icao": "LSPO", "name": "Flugplatz Olten", "operator": "SG Olten"}}]