[{"type": "node", "id": 60018172, "lat": 46.2073807, "lon": 6.1558891, "tags": {"addr:street": "Jet\u00e9e des Eaux Vives", "amenity": "fountain", "bottle": "no", "dog": "no", "drinking_water": "no", "fountain": "jet_water", "height": "140", "lit": "yes", "name": "Jet d'eau", "name:es": "El Chorro", "name:fr": "Jet d'eau", "name:ru": "\u0424\u043e\u043d\u0442\u0430\u043d \u0416\u0435 \u0434'\u041e", "name:zh": "\u5927\u55b7\u6cc9", "opening_hours:url": "https://ww2.sig-ge.ch/a-propos-de-sig/nous-connaitre/sites_expositions/jet_deau#base-block-4671", "start_date": "1951", "swimming_pool": "no", "tourism": "attraction", "wheelchair": "yes", "wikidata": "Q684661", "wikipedia": "fr:Jet d'eau de Gen\u00e8ve"}}, {"type": "node", "id": 139446272, "lat": 46.1285501, "lon": 5.9573812, "tags": {"boundary": "marker", "colour": "grey", "description": "First of 6638 Swiss boundary stones", "historic": "boundary_stone", "material": "stone", "name": "Borne n\u00b01", "name:de": "Grenzstein Nr. 1", "ref": "1", "source": "Orthophotos 2016 du SITG (Syst\u00e8me d'Information du Territoire Genevois)", "start_date": "1816", "tourism": "attraction"}}, {"type": "node", "id": 151258480, "lat": 46.1323565, "lon": 5.9559113, "tags": {"name": "Le point le plus occidental de Suisse", "name:de": "Westlichster Punkt der Schweiz", "note": "most western point of Switzerland", "tourism": "attraction"}}, {"type": "node", "id": 613159167, "lat": 46.1427106, "lon": 6.126112, "tags": {"historic": "yes", "man_made": "tower", "source": "local_knowledge", "tourism": "attraction", "tower:construction": "freestanding"}}, {"type": "node", "id": 916320563, "lat": 46.2242798, "lon": 6.1380784, "tags": {"name": "Cloche de Shinagawa", "name:en": "Peace Bell Honsen-ji, Shinagawa", "name:fr": "Cloche de Shinagawa", "tourism": "attraction", "wikidata": "Q116949776", "wikimedia_commons": "File:Shinagawa_bell_@_Parc_de_l'Ariana_@_Gen\u00e8ve_(50636980043).jpg"}}, {"type": "node", "id": 983797939, "lat": 46.2325449, "lon": 6.0552594, "tags": {"name": "Gargamelle bubble chamber", "tourism": "attraction", "wheelchair": "limited"}}, {"type": "node", "id": 1464505193, "lat": 46.2010975, "lon": 6.1470338, "tags": {"name": "Les Canons", "tourism": "attraction", "wheelchair": "yes"}}, {"type": "node", "id": 1895035255, "lat": 46.200547, "lon": 6.1463844, "tags": {"name": "Marronnier Officiel", "natural": "tree", "species": "Aesculus hippocastanum", "species:wikidata": "Q26899", "tourism": "attraction", "website": "https://www.geneve.ch/fr/marronnier-treille", "wikidata": "Q3294866"}}, {"type": "node", "id": 2373193682, "lat": 46.1712193, "lon": 6.1356925, "tags": {"name": "La ferme de la Chapelle", "tourism": "attraction"}}, {"type": "node", "id": 2481123835, "lat": 46.2295696, "lon": 6.0690798, "tags": {"amenity": "drinking_water", "name": "Fontaine de meyrin XIX si\u00e8cle", "name:fr": "Fontaine de meyrin XIX si\u00e8cle", "tourism": "attraction"}}, {"type": "node", "id": 4073460458, "lat": 46.2287279, "lon": 6.0845665, "tags": {"name": "Toboggan g\u00e9ant de la butte de Riantbosson", "tourism": "attraction", "wheelchair": "yes"}}, {"type": "node", "id": 4215176591, "lat": 46.2204562, "lon": 6.153324, "tags": {"tourism": "attraction"}}, {"type": "node", "id": 4263453027, "lat": 46.2324676, "lon": 6.0553883, "tags": {"name": "Big European Bubble Chamber", "tourism": "attraction", "wheelchair": "yes"}}, {"type": "node", "id": 4263453028, "lat": 46.2325863, "lon": 6.0554903, "tags": {"name": "A Radio Frequency cavity of the Large Electron Positron Collider", "tourism": "attraction", "wheelchair": "yes"}}, {"type": "node", "id": 4263453029, "lat": 46.2327559, "lon": 6.0555231, "tags": {"name": "Cockcroft-Walton generator", "tourism": "attraction", "wheelchair": "yes"}}, {"type": "node", "id": 4388714590, "lat": 46.2032341, "lon": 6.134808, "tags": {"addr:housenumber": "3bis", "addr:postcode": "1204", "addr:street": "Rue du Stand", "name": "Salle Communale le Palladium", "operator": "Ville  de Gen\u00e8ve", "phone": "+41 22 341 15 50", "tourism": "attraction"}}, {"type": "node", "id": 4663113696, "lat": 46.2101811, "lon": 6.1463179, "tags": {"addr:street": "Rue de Berne", "name:en": "red light district", "tourism": "attraction"}}, {"type": "node", "id": 4746611976, "lat": 46.1957738, "lon": 6.1487016, "tags": {"addr:city": "Gen\u00e8ve", "addr:housenumber": "105", "addr:postcode": "1205", "addr:street": "Rue Louise-De-Frott\u00e9", "email": "geneve@parapark.ch", "internet_access": "wlan", "leisure": "escape_game", "level": "0", "name": "Parapark Gen\u00e8ve Escape Room", "opening_hours": "Mo-Tu off; We-Fr 7:00-23:00; Sa-Su 11:00-23:00", "operator": "PP Escape Sarl", "phone": "+41 78 908 7901", "tourism": "attraction", "website": "https://geneve.parapark.ch", "wheelchair": "yes"}}, {"type": "node", "id": 4749610747, "lat": 46.2324123, "lon": 6.0554521, "tags": {"name": "Microcosm", "tourism": "attraction", "wheelchair": "yes"}}, {"type": "node", "id": 4881185825, "lat": 46.2038864, "lon": 6.1483178, "tags": {"name": "Gubelin AG", "name:en": "Gubelin AG", "tourism": "attraction"}}, {"type": "node", "id": 4881190825, "lat": 46.2035613, "lon": 6.1491281, "tags": {"name": "Hublot", "name:en": "Hublot", "tourism": "attraction"}}, {"type": "node", "id": 4881192922, "lat": 46.2031587, "lon": 6.1489411, "tags": {"name": "Tag Heuer", "name:en": "Tag Heuer", "tourism": "attraction"}}, {"type": "node", "id": 5538694621, "lat": 46.2212296, "lon": 6.1479514, "tags": {"addr:housenumber": "49", "addr:street": "Avenue Blanc", "name": "Lost", "name:fr": "Lost n' Scape", "tourism": "attraction"}}, {"type": "node", "id": 5734016022, "lat": 46.2036711, "lon": 6.1463685, "tags": {"name": "Horloge anim\u00e9e", "name:en": "animated clock stp", "tourism": "attraction"}}, {"type": "node", "id": 7090715288, "lat": 46.2039264, "lon": 6.1480962, "tags": {"name": "Horloger \"Gen\u00e8ve Cit\u00e9 de Refuge\"", "tourism": "attraction"}}, {"type": "node", "id": 7260514873, "lat": 46.2330058, "lon": 6.0527126, "tags": {"name": "Synchrocyclotron", "operator": "CERN", "tourism": "attraction"}}, {"type": "node", "id": 8555926217, "lat": 46.2054427, "lon": 6.1692566, "tags": {"name:en": "Roman Villa ruins", "tourism": "attraction"}}, {"type": "node", "id": 8728823522, "lat": 46.2777336, "lon": 6.2375653, "tags": {"name": "Pont des Golettes, sur l'Hermance.", "tourism": "attraction"}}, {"type": "node", "id": 9655620117, "lat": 46.2188328, "lon": 6.1107311, "tags": {"name": "Bowling de Balexert", "tourism": "attraction"}}, {"type": "node", "id": 9883440218, "lat": 46.2034657, "lon": 6.1324156, "tags": {"name": "D\u00e9part de la descente du Rh\u00f4ne", "tourism": "attraction"}}, {"type": "node", "id": 11032108006, "lat": 46.1955825, "lon": 6.208636, "tags": {"name": "La R\u00e9sistance Fer", "name:en": "Historic market (The Resistance Rail)", "tourism": "attraction"}}, {"type": "node", "id": 11032108105, "lat": 46.1968752, "lon": 6.2041881, "tags": {"name": "Place historiques (La Premi\u00e8re Guerre Mondiale)", "name:en": "Historical markerb (WWI)", "tourism": "attraction"}}, {"type": "node", "id": 11773688712, "lat": 46.2234709, "lon": 6.0051397, "tags": {"denotation": "natural_monument", "description": "Documented in: Atlas g\u00e9ologique de la Suisse 1:25000; Commission G\u00e9ologique de la Soci\u00e9t\u00e9 Helv\u00e9tique des Sciences Naturelles; Feuilles 12; Notice explicative par Edouard Par\u00e9jas, Year 1938; pp 13-14", "geological": "glacial_erratic", "height": "3m", "length": "5m", "name": "A Pair Of Erratic boulder of the Rhone glacier", "natural": "stone", "tourism": "attraction", "url": "https://data.geo.admin.ch/ch.swisstopo.geologie-geologischer_atlas/erlaeuterungen/GA25-ERL-12.pdf", "width": "3m"}}, {"type": "node", "id": 11773705384, "lat": 46.2235644, "lon": 6.0056241, "tags": {"denotation": "natural_monument", "description": "Documented in: Atlas g\u00e9ologique de la Suisse 1:25000; Commission G\u00e9ologique de la Soci\u00e9t\u00e9 Helv\u00e9tique des Sciences Naturelles; Feuilles 12; Notice explicative par Edouard Par\u00e9jas, Year 1938; pp 13-14", "geological": "glacial_erratic", "height": "4m", "length": "6m", "name": "Hugh Erratic boulder of the Rhone glacier", "natural": "stone", "tourism": "attraction", "url": "https://data.geo.admin.ch/ch.swisstopo.geologie-geologischer_atlas/erlaeuterungen/GA25-ERL-12.pdf", "width": "5m"}}, {"type": "node", "id": 11773733040, "lat": 46.2235518, "lon": 6.0054109, "tags": {"denotation": "natural_monument", "description": "Documented in: Atlas g\u00e9ologique de la Suisse 1:25000; Commission G\u00e9ologique de la Soci\u00e9t\u00e9 Helv\u00e9tique des Sciences Naturelles; Feuilles 12; Notice explicative par Edouard Par\u00e9jas, Year 1938; pp 13-14", "geological": "glacial_erratic", "height": "1.5m", "length": "4m", "name": "Erratic boulder of the Rhone glacier", "natural": "stone", "tourism": "attraction", "url": "https://data.geo.admin.ch/ch.swisstopo.geologie-geologischer_atlas/erlaeuterungen/GA25-ERL-12.pdf", "width": "2m"}}, {"type": "node", "id": 12066665149, "lat": 46.227128, "lon": 6.2281238, "tags": {"alt": "413", "denotation": "natural_monument", "geological": "glacial_erratic", "height": "1", "length": "3", "material": "granit", "name": "Erratic boulder", "natural": "stone", "tourism": "attraction", "width": "2"}}, {"type": "node", "id": 12348554298, "lat": 46.2236442, "lon": 6.0058351, "tags": {"alt": "361", "denotation": "natural_monument", "description": "Documented in: Atlas g\u00e9ologique de la Suisse 1:25000; Commission G\u00e9ologique de la Soci\u00e9t\u00e9 Helv\u00e9tique des Sciences Naturelles; Feuilles 12; Notice explicative par Edouard Par\u00e9jas, Year 1938; pp 13-14", "geological": "glacial_erratic", "height": "4", "length": "8", "material": "granit", "name": "Hugh Erratic boulder of the Rhone glacier", "natural": "stone", "tourism": "attraction", "url": "https://data.geo.admin.ch/ch.swisstopo.geologie-geologischer_atlas/erlaeuterungen/GA25-ERL-12.pdf", "width": "4"}}]