[{"type": "node", "id": 2388447150, "lat": 46.2313343, "lon": 6.1102707, "tags": {"ele": "424", "internet_access": "wlan", "internet_access:fee": "no", "internet_access:operator": "SBB", "name": "Gen\u00e8ve-A\u00e9roport", "name:de": "Genf Flughafen", "name:zh": "\u65e5\u5185\u74e6\u673a\u573a\u706b\u8f66\u7ad9", "operator": "SBB", "public_transport": "station", "railway": "station", "railway:ref": "GEAP", "uic_name": "Gen\u00e8ve-A\u00e9roport", "uic_ref": "8501026", "wheelchair": "yes", "wikidata": "Q677158"}}, {"type": "node", "id": 2754246079, "lat": 46.2204262, "lon": 6.0948081, "tags": {"ele": "428", "name": "Vernier", "operator": "SBB", "public_transport": "station", "railway": "station", "train": "yes", "uic_name": "Vernier", "uic_ref": "8501007", "wikidata": "Q15616901"}}, {"type": "node", "id": 3053167578, "lat": 46.2636838, "lon": 6.1611457, "tags": {"ele": "386", "name": "Creux-de-Genthod", "operator": "SBB", "public_transport": "station", "railway": "station", "railway:ref": "CRGD", "train": "yes", "uic_name": "Creux-de-Genthod", "uic_ref": "8501012", "wheelchair": "yes", "wikidata": "Q5846087"}}, {"type": "node", "id": 3053167580, "lat": 46.2797404, "lon": 6.1658051, "tags": {"ele": "388", "internet_access": "no", "name": "Versoix", "operator": "SBB", "public_transport": "station", "railway": "station", "railway:ref": "VSX", "uic_name": "Versoix", "uic_ref": "8501022", "wikidata": "Q5847444"}}, {"type": "node", "id": 3057742963, "lat": 46.2222732, "lon": 6.0762875, "tags": {"ele": "434", "name": "Meyrin", "operator": "SBB", "public_transport": "station", "railway": "station", "train": "yes", "uic_name": "Meyrin", "uic_ref": "8501006", "wikidata": "Q15616905"}}, {"type": "node", "id": 3059714407, "lat": 46.1786491, "lon": 5.9995243, "tags": {"ele": "356", "name": "La Plaine", "operator": "SBB", "public_transport": "station", "railway": "station", "uic_name": "La Plaine", "uic_ref": "8501001", "url": "https://www.sbb.ch/fr/gare-services/gares/autres-gares/gare.1001.plaine-la.html", "wikidata": "Q3096800"}}, {"type": "node", "id": 3059714408, "lat": 46.1877668, "lon": 6.0175136, "tags": {"addr:city": "Russin", "addr:housenumber": "21", "addr:street": "Chemin des Christophes", "ele": "377", "name": "Russin", "operator": "SBB", "public_transport": "station", "railway": "station", "uic_name": "Russin", "uic_ref": "8501002", "wikidata": "Q15953342", "wikimedia_commons": "Category:Russin_railway_station", "wikipedia": "fr:Gare de Russin"}}, {"type": "node", "id": 3060828206, "lat": 46.1869666, "lon": 6.1251674, "tags": {"ele": "384", "name": "Lancy-Pont-Rouge", "operator": "SBB", "public_transport": "station", "railway": "station", "railway:ref": "LAPR", "train": "yes", "uic_name": "Lancy-Pont-Rouge", "uic_ref": "8516155", "wheelchair": "yes", "wikidata": "Q1583893"}}, {"type": "node", "id": 4890696636, "lat": 46.2102288, "lon": 6.1426218, "tags": {"addr:city": "Gen\u00e8ve", "alt_name": "Gen\u00e8ve-Cornavin", "ele": "392", "internet_access": "wlan", "internet_access:fee": "no", "internet_access:operator": "SBB", "name": "Gen\u00e8ve", "name:ar": "\u062c\u0646\u064a\u0641", "name:azb": "\u0698\u0646\u0648", "name:de": "Genf Hauptbahnhof", "name:en": "Geneva Railway Station", "name:fa": "\u0698\u0646\u0648", "name:kk-Arab": "\u062c\u06d5\u0646\u06d5\u06c6\u0627", "name:pnb": "\u062c\u0646\u06cc\u0648\u0627", "name:sd": "\u062c\u0646\u064a\u0648\u0627", "name:ur": "\u062c\u0646\u06cc\u0648\u0627", "name:zh": "\u65e5\u5185\u74e6\u706b\u8f66\u7ad9", "network": "Unireso", "operator": "CFF", "public_transport": "station", "railway": "station", "railway:ref": "GE", "train": "yes", "uic_name": "Gen\u00e8ve", "uic_ref": "8501008", "wheelchair": "yes", "wikidata": "Q800819", "wikipedia": "fr:Gare de Gen\u00e8ve-Cornavin"}}, {"type": "node", "id": 6044426065, "lat": 46.1966071, "lon": 6.1972535, "tags": {"name": "Ch\u00eane-Bourg", "network": "L\u00e9man Express", "network:short": "LEX", "network:wikidata": "Q7885274", "operator": "SBB CFF FFS", "public_transport": "station", "railway": "station", "railway:ref": "CHEB", "train": "yes", "uic_name": "Ch\u00eane-Bourg", "uic_ref": "8516274", "wikidata": "Q3096243"}}, {"type": "node", "id": 6044426066, "lat": 46.200523, "lon": 6.1648206, "tags": {"name": "Gen\u00e8ve-Eaux-Vives", "network": "ch-direct", "operator": "SBB", "public_transport": "station", "railway": "station", "railway:ref": "GEV", "train": "yes", "uic_name": "Gen\u00e8ve-Eaux-Vives", "uic_ref": "8516273", "wikidata": "Q3098155", "wikipedia": "fr:Gare de Gen\u00e8ve-Eaux-Vives"}}, {"type": "node", "id": 6886527481, "lat": 46.1740246, "lon": 6.1302687, "tags": {"name": "Lancy-Bachet", "network": "ch-direct;unireso", "operator": "SBB", "public_transport": "station", "railway": "station", "railway:ref": "CABA", "train": "yes", "uic_name": "Lancy-Bachet", "uic_ref": "8517142", "wikidata": "Q43890330", "wikipedia": "fr:Gare de Lancy-Bachet"}}, {"type": "node", "id": 6886690043, "lat": 46.1924838, "lon": 6.1537008, "tags": {"name": "Gen\u00e8ve-Champel", "network": "ch-direct", "operator": "SBB", "public_transport": "station", "railway": "station", "railway:ref": "CHHO", "train": "yes", "uic_name": "Gen\u00e8ve-Champel", "uic_ref": "8516272", "wheelchair": "yes", "wikidata": "Q48610587", "wikipedia": "fr:Gare de Gen\u00e8ve-Champel"}}]