[{"type": "node", "id": 35416998, "lat": 46.2184623, "lon": 6.1106222, "tags": {"ele": "430", "name": "Balexert", "network": "18", "operator": "TPG", "public_transport": "stop_position", "railway": "tram_stop", "tram": "yes", "uic_name": "Vernier, Balexert", "uic_ref": "8593141", "wheelchair": "yes"}}, {"type": "node", "id": 35420048, "lat": 46.2210196, "lon": 6.1414444, "tags": {"ele": "401", "name": "Coll\u00e8ge Sismondi", "operator": "TPG", "public_transport": "stop_position", "railway": "tram_stop", "tram": "yes", "uic_name": "Gen\u00e8ve, Coll\u00e8ge Sismondi", "uic_ref": "8592905", "wheelchair": "yes"}}, {"type": "node", "id": 36663771, "lat": 46.1889255, "lon": 6.1310241, "tags": {"ele": "378", "name": "Pictet-Thellusson", "operator": "TPG", "public_transport": "stop_position", "railway": "tram_stop", "tram": "yes", "uic_name": "Carouge GE, Pictet-Thellusson", "uic_ref": "8592842", "wheelchair": "yes"}}, {"type": "node", "id": 297910640, "lat": 46.200564, "lon": 6.1407548, "tags": {"ele": "375", "name": "Cirque", "operator": "TPG", "public_transport": "stop_position", "railway": "tram_stop", "tram": "yes", "uic_name": "Gen\u00e8ve, Cirque", "uic_ref": "8592804", "wheelchair": "yes"}}, {"type": "node", "id": 297914745, "lat": 46.2008469, "lon": 6.1436417, "tags": {"ele": "382", "name": "Place de Neuve", "network": "Unireso", "network:wikidata": "Q1312883", "operator": "TPG", "public_transport": "stop_position", "railway": "tram_stop", "tram": "yes", "uic_name": "Gen\u00e8ve, Place de Neuve", "uic_ref": "8592885", "wheelchair": "yes"}}, {"type": "node", "id": 297916002, "lat": 46.2223204, "lon": 6.1391367, "tags": {"ele": "372", "name": "Nations", "operator": "TPG", "public_transport": "stop_position", "railway": "tram_stop", "tram": "yes", "uic_name": "Gen\u00e8ve, Nations", "uic_ref": "8587058", "wheelchair": "yes"}}, {"type": "node", "id": 306575952, "lat": 46.1903647, "lon": 6.1338571, "tags": {"ele": "376", "name": "Industrielle", "operator": "TPG", "public_transport": "stop_position", "railway": "tram_stop", "tram": "yes", "uic_name": "Gen\u00e8ve, Industrielle", "uic_ref": "8592839", "wheelchair": "yes"}}, {"type": "node", "id": 311316579, "lat": 46.2167622, "lon": 6.1478573, "tags": {"bus": "yes", "ele": "385", "highway": "bus_stop", "name": "Butini", "operator": "TPG", "public_transport": "stop_position", "railway": "tram_stop", "tram": "yes", "uic_name": "Gen\u00e8ve, Butini", "uic_ref": "8592795", "wheelchair": "yes"}}, {"type": "node", "id": 311316580, "lat": 46.2132908, "lon": 6.1455021, "tags": {"bus": "yes", "ele": "387", "highway": "bus_stop", "name": "M\u00f4le", "operator": "TPG", "public_transport": "stop_position", "railway": "tram_stop", "tram": "yes", "uic_name": "Gen\u00e8ve, M\u00f4le", "uic_ref": "8592863", "wheelchair": "yes"}}, {"type": "node", "id": 311319246, "lat": 46.2038216, "lon": 6.1399591, "tags": {"bus": "yes", "ele": "374", "name": "Stand", "operator": "TPG", "public_transport": "stop_position", "railway": "tram_stop", "tram": "yes", "uic_name": "Gen\u00e8ve, Stand", "uic_ref": "8592906", "wheelchair": "yes"}}, {"type": "node", "id": 311319269, "lat": 46.2074656, "lon": 6.1413561, "tags": {"bus": "yes", "ele": "385", "name": "Goulart", "operator": "TPG", "public_transport": "stop_position", "railway": "tram_stop", "tram": "yes", "uic_name": "Gen\u00e8ve, Goulart", "uic_ref": "8592831", "wheelchair": "yes"}}, {"type": "node", "id": 418121195, "lat": 46.1924323, "lon": 6.2063732, "tags": {"ele": "359", "name": "Moillesulaz", "operator": "TPG", "public_transport": "stop_position", "railway": "tram_stop", "ref": "B", "tram": "yes", "uic_name": "Th\u00f4nex, Moillesulaz", "uic_ref": "8593118"}}, {"type": "node", "id": 418121217, "lat": 46.2010718, "lon": 6.1561071, "tags": {"ele": "383", "name": "Terrassi\u00e8re", "operator": "TPG", "public_transport": "stop_position", "railway": "tram_stop", "ref": "U", "tram": "yes", "uic_name": "Gen\u00e8ve, Terrassi\u00e8re", "uic_ref": "8592910"}}, {"type": "node", "id": 418382649, "lat": 46.2018129, "lon": 6.1526155, "tags": {"ele": "372", "local_ref": "C", "name": "Rive", "network": "Unireso", "operator": "TPG", "public_transport": "stop_position", "railway": "tram_stop", "tram": "yes", "uic_name": "Gen\u00e8ve, Rive", "uic_ref": "8587061", "wheelchair": "limited"}}, {"type": "node", "id": 418848040, "lat": 46.1737836, "lon": 6.1295976, "tags": {"ele": "388", "name": "Lancy-Bachet-Gare", "network": "unireso", "operator": "TPG", "public_transport": "stop_position", "railway": "tram_stop", "tram": "yes", "uic_name": "Lancy-Bachet, gare", "uic_ref": "8587075", "wheelchair": "yes"}}, {"type": "node", "id": 427495962, "lat": 46.1926466, "lon": 6.1382958, "tags": {"ele": "373", "name": "Acacias", "operator": "TPG", "public_transport": "stop_position", "railway": "tram_stop", "tram": "yes", "uic_name": "Gen\u00e8ve, Acacias", "uic_ref": "8592774", "wheelchair": "yes"}}, {"type": "node", "id": 427495963, "lat": 46.1947091, "lon": 6.1411072, "tags": {"ele": "376", "name": "Uni-Mail", "operator": "TPG", "public_transport": "stop_position", "railway": "tram_stop", "tram": "yes", "uic_name": "Gen\u00e8ve, Uni-Mail", "uic_ref": "8592915", "wheelchair": "yes"}}, {"type": "node", "id": 428676747, "lat": 46.2197235, "lon": 6.1057182, "tags": {"ele": "419", "name": "Avanchet", "network": "18", "operator": "TPG", "public_transport": "stop_position", "railway": "tram_stop", "tram": "yes", "uic_name": "Vernier, Avanchet", "uic_ref": "8593139", "wheelchair": "yes"}}, {"type": "node", "id": 428678599, "lat": 46.209782, "lon": 6.1414636, "tags": {"ele": "327", "name": "Gare Cornavin", "network": "14, 18", "operator": "TPG", "public_transport": "stop_position", "railway": "tram_stop", "ref": "I", "tram": "yes", "uic_name": "Gen\u00e8ve, gare Cornavin", "uic_ref": "8587057", "wheelchair": "yes"}}, {"type": "node", "id": 695825965, "lat": 46.225756, "lon": 6.0835855, "tags": {"ele": "435", "name": "Jardin-Alpin-Vivarium", "network": "18", "operator": "TPG", "public_transport": "stop_position", "railway": "tram_stop", "tram": "yes", "uic_name": "Meyrin, Jardin-Alpin-Vivarium", "uic_ref": "8593015", "wheelchair": "yes"}}, {"type": "node", "id": 695825991, "lat": 46.2220712, "lon": 6.0971931, "tags": {"ele": "419", "local_ref": "B", "name": "Blandonnet", "network": "18", "operator": "TPG", "public_transport": "stop_position", "railway": "tram_stop", "tram": "yes", "uic_name": "Vernier, Blandonnet", "uic_ref": "8587924", "website": "https://www.tpg.ch/fr/bldo"}}, {"type": "node", "id": 695825992, "lat": 46.2331867, "lon": 6.0777193, "tags": {"ele": "435", "name": "Vaudagne", "operator": "TPG", "public_transport": "stop_position", "railway": "tram_stop", "tram": "yes", "uic_name": "Meyrin, Vaudagne", "uic_ref": "8593022", "website": "https://www.tpg.ch/fr/vaud"}}, {"type": "node", "id": 698911254, "lat": 46.2308105, "lon": 6.0808835, "tags": {"ele": "436", "name": "Forumeyrin", "operator": "TPG", "public_transport": "stop_position", "railway": "tram_stop", "tram": "yes", "uic_name": "Meyrin, Forumeyrin", "uic_ref": "8593010", "url": "http://www.tpg.ch/fr/foru"}}, {"type": "node", "id": 702908562, "lat": 46.2366457, "lon": 6.0819397, "tags": {"name": "Meyrin-Gravi\u00e8re", "public_transport": "stop_position", "railway": "tram_stop", "tram": "yes", "website": "https://www.tpg.ch/fr/grvi"}}, {"type": "node", "id": 976059769, "lat": 46.1737712, "lon": 6.1296439, "tags": {"ele": "388", "name": "Lancy-Bachet-Gare", "network": "unireso", "operator": "TPG", "public_transport": "stop_position", "railway": "tram_stop", "tram": "yes", "uic_name": "Lancy-Bachet, gare", "uic_ref": "8587075", "wheelchair": "yes"}}, {"type": "node", "id": 1033244930, "lat": 46.2073935, "lon": 6.1421034, "tags": {"ele": "381", "name": "Coutance", "public_transport": "stop_position", "railway": "tram_stop", "tram": "yes", "uic_name": "Gen\u00e8ve, Coutance", "uic_ref": "8592812", "wheelchair": "yes"}}, {"type": "node", "id": 1038908883, "lat": 46.1932012, "lon": 6.2011311, "tags": {"ele": "421", "highway": "bus_stop", "local_ref": "R", "name": "Graveson", "network": "Unireso", "operator": "TPG", "public_transport": "stop_position", "railway": "tram_stop", "tram": "yes", "uic_name": "Th\u00f4nex, Graveson", "uic_ref": "8593112"}}, {"type": "node", "id": 1082706650, "lat": 46.1984797, "lon": 6.1420131, "tags": {"ele": "376", "name": "Plainpalais", "operator": "TPG", "public_transport": "stop_position", "railway": "tram_stop", "tram": "yes", "uic_name": "Gen\u00e8ve, Plainpalais", "uic_ref": "8587907", "wheelchair": "yes"}}, {"type": "node", "id": 1266403290, "lat": 46.2321091, "lon": 6.0602738, "tags": {"bus": "yes", "contact:website": "http://www.tpg.ch/fr/maix", "ele": "430", "highway": "bus_stop", "name": "Maisonnex", "operator": "TPG", "public_transport": "stop_position", "railway": "tram_stop", "tram": "yes", "uic_name": "Meyrin, Maisonnex", "uic_ref": "8593018", "wheelchair": "yes"}}, {"type": "node", "id": 1266403296, "lat": 46.2334452, "lon": 6.0555477, "tags": {"bus": "yes", "contact:website": "http://www.tpg.ch/fr/cern", "ele": "436", "name": "CERN", "operator": "TPG", "public_transport": "stop_position", "railway": "tram_stop", "tram": "yes", "uic_name": "Meyrin, CERN", "uic_ref": "8587918", "wheelchair": "yes"}}, {"type": "node", "id": 1533266934, "lat": 46.2037064, "lon": 6.1444926, "tags": {"bus": "yes", "ele": "375", "name": "Bel-Air", "network": "Unireso", "operator": "TPG", "public_transport": "stop_position", "railway": "tram_stop", "tram": "yes", "uic_name": "Gen\u00e8ve, Bel-Air", "uic_ref": "8587387", "wheelchair": "yes"}}, {"type": "node", "id": 1533266979, "lat": 46.2017883, "lon": 6.1525988, "tags": {"ele": "372", "local_ref": "B", "name": "Rive", "network": "Unireso", "operator": "TPG", "public_transport": "stop_position", "railway": "tram_stop", "tram": "yes", "uic_name": "Gen\u00e8ve, Rive", "uic_ref": "8587061", "wheelchair": "limited"}}, {"type": "node", "id": 1538444270, "lat": 46.2030454, "lon": 6.1336759, "tags": {"ele": "372", "name": "Palladium", "public_transport": "stop_position", "railway": "tram_stop", "tram": "yes", "uic_name": "Gen\u00e8ve, Palladium", "uic_ref": "8592874", "wheelchair": "yes"}}, {"type": "node", "id": 1538462367, "lat": 46.2035833, "lon": 6.1407166, "tags": {"ele": "374", "name": "Stand", "operator": "TPG", "public_transport": "stop_position", "railway": "tram_stop", "tram": "yes", "uic_name": "Gen\u00e8ve, Stand", "uic_ref": "8592906", "wheelchair": "yes"}}, {"type": "node", "id": 1538462371, "lat": 46.2040999, "lon": 6.1404184, "tags": {"ele": "374", "name": "Stand", "operator": "TPG", "public_transport": "stop_position", "railway": "tram_stop", "tram": "yes", "uic_name": "Gen\u00e8ve, Stand", "uic_ref": "8592906"}}, {"type": "node", "id": 1538483494, "lat": 46.203009, "lon": 6.1336803, "tags": {"ele": "372", "name": "Palladium", "public_transport": "stop_position", "railway": "tram_stop", "tram": "yes", "uic_name": "Gen\u00e8ve, Palladium", "uic_ref": "8592874", "wheelchair": "yes"}}, {"type": "node", "id": 1538483503, "lat": 46.2009124, "lon": 6.1297137, "tags": {"name": "Jonction", "public_transport": "stop_position", "railway": "tram_stop", "tram": "yes", "wheelchair": "yes"}}, {"type": "node", "id": 1538489533, "lat": 46.2031903, "lon": 6.1467975, "tags": {"ele": "376", "name": "Molard", "network": "Unireso", "network:wikidata": "Q1312883", "operator": "TPG", "public_transport": "stop_position", "railway": "tram_stop", "tram": "yes", "uic_name": "Gen\u00e8ve, Molard", "uic_ref": "8592862", "wheelchair": "yes"}}, {"type": "node", "id": 1538489535, "lat": 46.2032197, "lon": 6.1468136, "tags": {"ele": "376", "name": "Molard", "network": "Unireso", "network:wikidata": "Q1312883", "operator": "TPG", "public_transport": "stop_position", "railway": "tram_stop", "tram": "yes", "uic_name": "Gen\u00e8ve, Molard", "uic_ref": "8592862", "wheelchair": "yes"}}, {"type": "node", "id": 1538545357, "lat": 46.2010929, "lon": 6.1561211, "tags": {"ele": "383", "name": "Terrassi\u00e8re", "operator": "TPG", "public_transport": "stop_position", "railway": "tram_stop", "tram": "yes", "uic_name": "Gen\u00e8ve, Terrassi\u00e8re", "uic_ref": "8592910", "wheelchair": "limited"}}, {"type": "node", "id": 1538555915, "lat": 46.2038408, "lon": 6.1440766, "tags": {"bus": "yes", "ele": "375", "name": "Bel-Air", "network": "Unireso", "operator": "TPG", "public_transport": "stop_position", "railway": "tram_stop", "tram": "yes", "uic_name": "Gen\u00e8ve, Bel-Air", "uic_ref": "8587387", "wheelchair": "yes"}}, {"type": "node", "id": 1538653712, "lat": 46.204732, "lon": 6.1434727, "tags": {"ele": "375", "layer": "1", "name": "Bel-Air", "operator": "TPG", "public_transport": "stop_position", "railway": "tram_stop", "tram": "yes", "uic_name": "Gen\u00e8ve, Bel-Air", "uic_ref": "8587387", "wheelchair": "yes"}}, {"type": "node", "id": 1538653729, "lat": 46.2047141, "lon": 6.1434304, "tags": {"ele": "375", "layer": "1", "name": "Bel-Air", "operator": "TPG", "public_transport": "stop_position", "railway": "tram_stop", "tram": "yes", "uic_name": "Gen\u00e8ve, Bel-Air", "uic_ref": "8587387", "wheelchair": "yes"}}, {"type": "node", "id": 1538653739, "lat": 46.2075086, "lon": 6.1422146, "tags": {"name": "Coutance", "public_transport": "stop_position", "railway": "tram_stop", "tram": "yes", "wheelchair": "yes"}}, {"type": "node", "id": 1541446207, "lat": 46.1880456, "lon": 6.1130328, "tags": {"bus": "yes", "ele": "427", "highway": "bus_stop", "local_ref": "A", "name": "Les Esserts", "network": "Unireso", "operator": "TPG", "public_transport": "stop_position", "railway": "tram_stop", "tram": "yes", "uic_name": "Petit-Lancy, Les Esserts", "uic_ref": "8587418", "wheelchair": "yes"}}, {"type": "node", "id": 1541446225, "lat": 46.1859261, "lon": 6.1063824, "tags": {"bus": "yes", "ele": "421", "highway": "bus_stop", "name": "Bandol", "operator": "TPG", "public_transport": "stop_position", "railway": "tram_stop", "tram": "yes", "uic_name": "Onex, Bandol", "uic_ref": "8593027", "wheelchair": "yes"}}, {"type": "node", "id": 1541446268, "lat": 46.1881027, "lon": 6.1129909, "tags": {"bus": "yes", "ele": "427", "highway": "bus_stop", "local_ref": "B", "name": "Les Esserts", "network": "Unireso", "operator": "TPG", "public_transport": "stop_position", "railway": "tram_stop", "tram": "yes", "uic_name": "Petit-Lancy, Les Esserts", "uic_ref": "8587418", "wheelchair": "yes"}}, {"type": "node", "id": 1541446283, "lat": 46.1936859, "lon": 6.1237519, "tags": {"ele": "411", "name": "Quidort", "operator": "TPG", "public_transport": "stop_position", "railway": "tram_stop", "tram": "yes", "uic_name": "Petit-Lancy, Quidort", "uic_ref": "8592995", "wheelchair": "yes"}}, {"type": "node", "id": 1541446306, "lat": 46.1786985, "lon": 6.0893795, "tags": {"ele": "432", "name": "Confignon-Crois\u00e9e", "operator": "TPG", "public_transport": "stop_position", "railway": "tram_stop", "tram": "yes", "uic_name": "Confignon, crois\u00e9e", "uic_ref": "8587386", "wheelchair": "yes"}}, {"type": "node", "id": 1541446315, "lat": 46.1936679, "lon": 6.1237898, "tags": {"ele": "411", "name": "Quidort", "operator": "TPG", "public_transport": "stop_position", "railway": "tram_stop", "tram": "yes", "uic_name": "Petit-Lancy, Quidort", "uic_ref": "8592995", "wheelchair": "yes"}}, {"type": "node", "id": 1541446347, "lat": 46.1787275, "lon": 6.0893621, "tags": {"ele": "432", "name": "Confignon-Crois\u00e9e", "operator": "TPG", "public_transport": "stop_position", "railway": "tram_stop", "tram": "yes", "uic_name": "Confignon, crois\u00e9e", "uic_ref": "8587386", "wheelchair": "yes"}}, {"type": "node", "id": 1541446350, "lat": 46.1903335, "lon": 6.119292, "tags": {"ele": "421", "name": "Petit-Lancy-Place", "operator": "TPG", "public_transport": "stop_position", "railway": "tram_stop", "tram": "yes", "uic_name": "Petit-Lancy, place", "uic_ref": "8587082", "wheelchair": "yes"}}, {"type": "node", "id": 1541446374, "lat": 46.1903573, "lon": 6.119262, "tags": {"ele": "421", "name": "Petit-Lancy-Place", "operator": "TPG", "public_transport": "stop_position", "railway": "tram_stop", "tram": "yes", "uic_name": "Petit-Lancy, place", "uic_ref": "8587082", "wheelchair": "yes"}}, {"type": "node", "id": 1541460554, "lat": 46.1858695, "lon": 6.1064282, "tags": {"bus": "yes", "ele": "421", "highway": "bus_stop", "name": "Bandol", "operator": "TPG", "public_transport": "stop_position", "railway": "tram_stop", "tram": "yes", "uic_name": "Onex, Bandol", "uic_ref": "8593027", "wheelchair": "yes"}}, {"type": "node", "id": 1541460566, "lat": 46.1834122, "lon": 6.100239, "tags": {"ele": "431", "name": "Onex-Salle communale", "operator": "TPG", "public_transport": "stop_position", "railway": "tram_stop", "tram": "yes", "uic_name": "Onex, Salle communale", "uic_ref": "8587080", "wheelchair": "yes"}}, {"type": "node", "id": 1541460574, "lat": 46.1834353, "lon": 6.1002086, "tags": {"ele": "431", "name": "Onex-Salle communale", "operator": "TPG", "public_transport": "stop_position", "railway": "tram_stop", "tram": "yes", "uic_name": "Onex, Salle communale", "uic_ref": "8587080", "wheelchair": "yes"}}, {"type": "node", "id": 1541460619, "lat": 46.1805877, "lon": 6.0941613, "tags": {"ele": "430", "name": "La Dode", "operator": "TPG", "public_transport": "stop_position", "railway": "tram_stop", "tram": "yes", "uic_name": "Confignon, La Dode", "uic_ref": "8592758", "wheelchair": "yes"}}, {"type": "node", "id": 1541460630, "lat": 46.1810944, "lon": 6.0954425, "tags": {"ele": "430", "name": "La Dode", "operator": "TPG", "public_transport": "stop_position", "railway": "tram_stop", "tram": "yes", "uic_name": "Confignon, La Dode", "uic_ref": "8592758", "wheelchair": "yes"}}, {"type": "node", "id": 1541473483, "lat": 46.2133062, "lon": 6.1454667, "tags": {"ele": "387", "name": "M\u00f4le", "operator": "TPG", "public_transport": "stop_position", "railway": "tram_stop", "tram": "yes", "uic_name": "Gen\u00e8ve, M\u00f4le", "uic_ref": "8592863", "wheelchair": "yes"}}, {"type": "node", "id": 1541473508, "lat": 46.2103166, "lon": 6.1435155, "tags": {"bus": "yes", "ele": "327", "name": "Gare Cornavin", "operator": "TPG", "public_transport": "stop_position", "railway": "tram_stop", "ref": "E", "tram": "yes", "uic_name": "Gen\u00e8ve, gare Cornavin", "uic_ref": "8587057", "wheelchair": "yes"}}, {"type": "node", "id": 1541473534, "lat": 46.2167707, "lon": 6.1478111, "tags": {"ele": "385", "name": "Butini", "operator": "TPG", "public_transport": "stop_position", "railway": "tram_stop", "tram": "yes", "uic_name": "Gen\u00e8ve, Butini", "uic_ref": "8592795", "wheelchair": "yes"}}, {"type": "node", "id": 1541473538, "lat": 46.2100399, "lon": 6.1431393, "tags": {"bus": "yes", "ele": "327", "name": "Gare Cornavin", "opening_hours": "Mo-Fr 07:00-19:00; Sa 09:00-18:00", "operator": "TPG", "public_transport": "stop_position", "railway": "tram_stop", "ref": "D", "tram": "yes", "uic_name": "Gen\u00e8ve, gare Cornavin", "uic_ref": "8587057", "wheelchair": "yes"}}, {"type": "node", "id": 1541473546, "lat": 46.2200605, "lon": 6.1456402, "tags": {"ele": "390", "name": "Maison de la Paix", "operator": "TPG", "public_transport": "stop_position", "railway": "tram_stop", "tram": "yes", "uic_name": "Gen\u00e8ve, Maison de la Paix", "uic_ref": "8592825", "wheelchair": "yes"}}, {"type": "node", "id": 1541473569, "lat": 46.2200312, "lon": 6.1456383, "tags": {"ele": "390", "name": "Maison de la Paix", "operator": "TPG", "public_transport": "stop_position", "railway": "tram_stop", "tram": "yes", "uic_name": "Gen\u00e8ve, Maison de la Paix", "uic_ref": "8592825", "wheelchair": "yes"}}, {"type": "node", "id": 1542950742, "lat": 46.2209936, "lon": 6.1414301, "tags": {"ele": "401", "name": "Coll\u00e8ge Sismondi", "operator": "TPG", "public_transport": "stop_position", "railway": "tram_stop", "tram": "yes", "uic_name": "Gen\u00e8ve, Coll\u00e8ge Sismondi", "uic_ref": "8592905", "wheelchair": "yes"}}, {"type": "node", "id": 1545757577, "lat": 46.2008439, "lon": 6.1298322, "tags": {"name": "Jonction", "public_transport": "stop_position", "railway": "tram_stop", "tram": "yes", "wheelchair": "yes"}}, {"type": "node", "id": 1549433336, "lat": 46.2117921, "lon": 6.1335732, "tags": {"ele": "406", "name": "Poterie", "operator": "TPG", "public_transport": "stop_position", "railway": "tram_stop", "tram": "yes", "uic_name": "Gen\u00e8ve, Poterie", "uic_ref": "8592889", "wheelchair": "yes"}}, {"type": "node", "id": 1549433395, "lat": 46.2133964, "lon": 6.1302143, "tags": {"ele": "409", "name": "Servette", "operator": "TPG", "public_transport": "stop_position", "railway": "tram_stop", "tram": "yes", "wheelchair": "yes"}}, {"type": "node", "id": 1549433422, "lat": 46.2134278, "lon": 6.1302399, "tags": {"ele": "409", "name": "Servette", "operator": "TPG", "public_transport": "stop_position", "railway": "tram_stop", "tram": "yes", "wheelchair": "yes"}}, {"type": "node", "id": 1549433444, "lat": 46.2098507, "lon": 6.141525, "tags": {"ele": "327", "name": "Gare Cornavin", "network": "14, 18", "operator": "TPG", "public_transport": "stop_position", "railway": "tram_stop", "ref": "H", "tram": "yes", "uic_name": "Gen\u00e8ve, gare Cornavin", "uic_ref": "8587057", "wheelchair": "yes"}}, {"type": "node", "id": 1549433494, "lat": 46.2098639, "lon": 6.1381997, "tags": {"ele": "393", "name": "Lyon", "network": "18", "operator": "TPG", "public_transport": "stop_position", "railway": "tram_stop", "tram": "yes", "uic_name": "Gen\u00e8ve, Lyon", "uic_ref": "8592850", "wheelchair": "yes"}}, {"type": "node", "id": 1549447286, "lat": 46.2150254, "lon": 6.1251858, "tags": {"bus": "yes", "name": "Vieusseux", "network": "Unireso", "operator": "TPG", "public_transport": "stop_position", "railway": "tram_stop", "tram": "yes", "uic_name": "Gen\u00e8ve, Vieusseux", "uic_ref": "8592922", "wheelchair": "yes"}}, {"type": "node", "id": 1549447290, "lat": 46.2196405, "lon": 6.1056699, "tags": {"ele": "419", "name": "Avanchet", "network": "18", "operator": "TPG", "public_transport": "stop_position", "railway": "tram_stop", "tram": "yes", "uic_name": "Vernier, Avanchet", "uic_ref": "8593139", "wheelchair": "yes"}}, {"type": "node", "id": 1549447299, "lat": 46.2163771, "lon": 6.1179481, "tags": {"ele": "429", "local_ref": "A", "name": "Bouchet", "network": "Unireso", "operator": "TPG", "public_transport": "stop_position", "railway": "tram_stop", "tram": "yes", "uic_name": "Vernier, Bouchet", "uic_ref": "8592791", "wheelchair": "yes"}}, {"type": "node", "id": 1549447316, "lat": 46.2149904, "lon": 6.1251734, "tags": {"name": "Vieusseux", "network": "18", "operator": "TPG", "public_transport": "stop_position", "railway": "tram_stop", "tram": "yes", "uic_name": "Gen\u00e8ve, Vieusseux", "uic_ref": "8592922", "wheelchair": "yes"}}, {"type": "node", "id": 1549447318, "lat": 46.2164547, "lon": 6.1179849, "tags": {"ele": "429", "local_ref": "B", "name": "Bouchet", "network": "Unireso", "operator": "TPG", "public_transport": "stop_position", "railway": "tram_stop", "tram": "yes", "uic_name": "Vernier, Bouchet", "uic_ref": "8592791", "wheelchair": "yes"}}, {"type": "node", "id": 1550063099, "lat": 46.211824, "lon": 6.1335976, "tags": {"ele": "406", "name": "Poterie", "operator": "TPG", "public_transport": "stop_position", "railway": "tram_stop", "tram": "yes", "uic_name": "Gen\u00e8ve, Poterie", "uic_ref": "8592889", "wheelchair": "yes"}}, {"type": "node", "id": 1550063100, "lat": 46.2098321, "lon": 6.1381758, "tags": {"ele": "393", "name": "Lyon", "network": "18", "operator": "TPG", "public_transport": "stop_position", "railway": "tram_stop", "tram": "yes", "uic_name": "Gen\u00e8ve, Lyon", "uic_ref": "8592850", "wheelchair": "yes"}}, {"type": "node", "id": 1550168348, "lat": 46.2330694, "lon": 6.0778135, "tags": {"contact:website": "http://www.tpg.ch/fr/vaud", "ele": "435", "name": "Vaudagne", "operator": "TPG", "public_transport": "stop_position", "railway": "tram_stop", "tram": "yes", "uic_name": "Meyrin, Vaudagne", "uic_ref": "8593022"}}, {"type": "node", "id": 1550168376, "lat": 46.2256711, "lon": 6.0835786, "tags": {"ele": "435", "name": "Jardin-Alpin-Vivarium", "network": "18", "operator": "TPG", "public_transport": "stop_position", "railway": "tram_stop", "tram": "yes", "uic_name": "Meyrin, Jardin-Alpin-Vivarium", "uic_ref": "8593015", "wheelchair": "yes"}}, {"type": "node", "id": 1550168398, "lat": 46.2365966, "lon": 6.0818124, "tags": {"contact:website": "http://www.tpg.ch/fr/grvi", "name": "Meyrin-Gravi\u00e8re", "public_transport": "stop_position", "railway": "tram_stop", "tram": "yes"}}, {"type": "node", "id": 1550168426, "lat": 46.2219869, "lon": 6.0971472, "tags": {"ele": "419", "local_ref": "A", "name": "Blandonnet", "network": "18", "operator": "TPG", "public_transport": "stop_position", "railway": "tram_stop", "tram": "yes", "uic_name": "Vernier, Blandonnet", "uic_ref": "8587924", "website": "https://www.tpg.ch/fr/bldo", "wheelchair": "yes"}}, {"type": "node", "id": 1550168468, "lat": 46.2306382, "lon": 6.0810258, "tags": {"ele": "436", "name": "Forumeyrin", "operator": "TPG", "public_transport": "stop_position", "railway": "tram_stop", "tram": "yes", "uic_name": "Meyrin, Forumeyrin", "uic_ref": "8593010", "url": "http://www.tpg.ch/fr/foru", "wheelchair": "yes"}}, {"type": "node", "id": 1550672389, "lat": 46.2288096, "lon": 6.0721022, "tags": {"bus": "yes", "ele": "434", "local_ref": "F", "name": "Meyrin-Village", "network": "18", "operator": "TPG", "public_transport": "stop_position", "railway": "tram_stop", "tram": "yes", "uic_name": "Meyrin, village", "uic_ref": "8593026", "wheelchair": "yes"}}, {"type": "node", "id": 1550672415, "lat": 46.2271197, "lon": 6.0782594, "tags": {"ele": "431", "name": "Bois-du-Lan", "network": "18", "operator": "TPG", "public_transport": "stop_position", "railway": "tram_stop", "tram": "yes", "uic_name": "Meyrin, Bois-du-Lan", "uic_ref": "8594933", "wheelchair": "yes"}}, {"type": "node", "id": 1550672534, "lat": 46.2271805, "lon": 6.0782838, "tags": {"ele": "431", "name": "Bois-du-Lan", "network": "18", "operator": "TPG", "public_transport": "stop_position", "railway": "tram_stop", "tram": "yes", "uic_name": "Meyrin, Bois-du-Lan", "uic_ref": "8594933", "wheelchair": "yes"}}, {"type": "node", "id": 1550672551, "lat": 46.2334731, "lon": 6.0555685, "tags": {"bus": "yes", "contact:website": "http://www.tpg.ch/fr/cern", "ele": "436", "name": "CERN", "operator": "TPG", "public_transport": "stop_position", "railway": "tram_stop", "tram": "yes", "uic_name": "Meyrin, CERN", "uic_ref": "8587918", "wheelchair": "yes"}}, {"type": "node", "id": 1550672568, "lat": 46.2288729, "lon": 6.0719747, "tags": {"bus": "yes", "ele": "434", "local_ref": "G", "name": "Meyrin-Village", "network": "18", "operator": "TPG", "public_transport": "stop_position", "railway": "tram_stop", "tram": "yes", "uic_name": "Meyrin, village", "uic_ref": "8593026", "wheelchair": "yes"}}, {"type": "node", "id": 1550672646, "lat": 46.23216, "lon": 6.0601941, "tags": {"bus": "yes", "contact:website": "http://www.tpg.ch/fr/maix", "ele": "430", "highway": "bus_stop", "name": "Maisonnex", "operator": "TPG", "public_transport": "stop_position", "railway": "tram_stop", "tram": "yes", "uic_name": "Meyrin, Maisonnex", "uic_ref": "8593018", "wheelchair": "yes"}}, {"type": "node", "id": 1550672724, "lat": 46.2301592, "lon": 6.0672623, "tags": {"bus": "yes", "ele": "427", "name": "H\u00f4pital de La Tour", "operator": "TPG", "public_transport": "stop_position", "railway": "tram_stop", "tram": "yes", "uic_name": "Meyrin, H\u00f4pital de La Tour", "uic_ref": "8593013", "wheelchair": "yes"}}, {"type": "node", "id": 1550672780, "lat": 46.2302258, "lon": 6.0671258, "tags": {"bus": "yes", "ele": "427", "name": "H\u00f4pital de La Tour", "operator": "TPG", "public_transport": "stop_position", "railway": "tram_stop", "tram": "yes", "uic_name": "Meyrin, H\u00f4pital de La Tour", "uic_ref": "8593013", "wheelchair": "yes"}}, {"type": "node", "id": 1550806751, "lat": 46.2183854, "lon": 6.1105517, "tags": {"ele": "430", "name": "Balexert", "network": "18", "operator": "TPG", "public_transport": "stop_position", "railway": "tram_stop", "tram": "yes", "uic_name": "Vernier, Balexert", "uic_ref": "8593141", "wheelchair": "yes"}}, {"type": "node", "id": 1551591008, "lat": 46.2006059, "lon": 6.1585406, "tags": {"ele": "388", "name": "Villereuse", "operator": "TPG", "public_transport": "stop_position", "railway": "tram_stop", "tram": "yes", "uic_name": "Gen\u00e8ve, Villereuse", "uic_ref": "8592924"}}, {"type": "node", "id": 1551591042, "lat": 46.2006265, "lon": 6.1585489, "tags": {"ele": "388", "name": "Villereuse", "operator": "TPG", "public_transport": "stop_position", "railway": "tram_stop", "tram": "yes", "uic_name": "Gen\u00e8ve, Villereuse", "uic_ref": "8592924"}}, {"type": "node", "id": 1551608621, "lat": 46.2000162, "lon": 6.167988, "tags": {"ele": "410", "name": "Amandolier", "operator": "TPG", "public_transport": "stop_position", "railway": "tram_stop", "tram": "yes", "uic_name": "Gen\u00e8ve, Amandolier", "uic_ref": "8592778", "wheelchair": "yes"}}, {"type": "node", "id": 1551608628, "lat": 46.1982873, "lon": 6.1856159, "tags": {"ele": "422", "name": "Grange-Falquet", "operator": "TPG", "public_transport": "stop_position", "railway": "tram_stop", "tram": "yes", "uic_name": "Ch\u00eane-Bougeries,Grange-Falquet", "uic_ref": "8592706"}}, {"type": "node", "id": 1551608677, "lat": 46.1955127, "lon": 6.1922673, "tags": {"ele": "417", "name": "Place Favre", "operator": "TPG", "public_transport": "stop_position", "railway": "tram_stop", "tram": "yes", "uic_name": "Ch\u00eane-Bourg, Place Favre", "uic_ref": "8592713"}}, {"type": "node", "id": 1551608692, "lat": 46.199594, "lon": 6.174637, "tags": {"ele": "421", "name": "Grange-Canal", "operator": "TPG", "public_transport": "stop_position", "railway": "tram_stop", "tram": "yes", "uic_name": "Ch\u00eane-Bougeries, Grange-Canal", "uic_ref": "8592833"}}, {"type": "node", "id": 1551608761, "lat": 46.1954896, "lon": 6.1922464, "tags": {"ele": "417", "name": "Place Favre", "operator": "TPG", "public_transport": "stop_position", "railway": "tram_stop", "tram": "yes", "uic_name": "Ch\u00eane-Bourg, Place Favre", "uic_ref": "8592713"}}, {"type": "node", "id": 1551608788, "lat": 46.1996181, "lon": 6.1746465, "tags": {"ele": "421", "name": "Grange-Canal", "operator": "TPG", "public_transport": "stop_position", "railway": "tram_stop", "tram": "yes", "uic_name": "Ch\u00eane-Bougeries, Grange-Canal", "uic_ref": "8592833"}}, {"type": "node", "id": 1551608900, "lat": 46.1983134, "lon": 6.1856256, "tags": {"ele": "422", "name": "Grange-Falquet", "operator": "TPG", "public_transport": "stop_position", "railway": "tram_stop", "tram": "yes", "uic_name": "Ch\u00eane-Bougeries,Grange-Falquet", "uic_ref": "8592706"}}, {"type": "node", "id": 1551616512, "lat": 46.1939959, "lon": 6.1962908, "tags": {"ele": "419", "name": "Peillonnex", "operator": "TPG", "public_transport": "stop_position", "railway": "tram_stop", "tram": "yes", "uic_name": "Ch\u00eane-Bourg, Peillonnex", "uic_ref": "8592709"}}, {"type": "node", "id": 1551616598, "lat": 46.194028, "lon": 6.1962993, "tags": {"ele": "419", "name": "Peillonnex", "operator": "TPG", "public_transport": "stop_position", "railway": "tram_stop", "tram": "yes", "uic_name": "Ch\u00eane-Bourg, Peillonnex", "uic_ref": "8592709"}}, {"type": "node", "id": 1551616618, "lat": 46.1933056, "lon": 6.2003278, "tags": {"ele": "421", "local_ref": "Q", "name": "Graveson", "network": "Unireso", "operator": "TPG", "public_transport": "stop_position", "railway": "tram_stop", "tram": "yes", "uic_name": "Th\u00f4nex, Graveson", "uic_ref": "8593112"}}, {"type": "node", "id": 1554521499, "lat": 46.2038231, "lon": 6.1398375, "tags": {"bus": "yes", "ele": "374", "highway": "bus_stop", "name": "Stand", "operator": "TPG", "public_transport": "stop_position", "railway": "tram_stop", "tram": "yes", "uic_name": "Gen\u00e8ve, Stand", "uic_ref": "8592906"}}, {"type": "node", "id": 1560291733, "lat": 46.1978783, "lon": 6.1429909, "tags": {"ele": "376", "name": "Plainpalais", "operator": "TPG", "public_transport": "stop_position", "railway": "tram_stop", "tram": "yes", "uic_name": "Gen\u00e8ve, Plainpalais", "uic_ref": "8587907", "wheelchair": "yes"}}, {"type": "node", "id": 1560291774, "lat": 46.1978786, "lon": 6.1430297, "tags": {"ele": "376", "name": "Plainpalais", "operator": "TPG", "public_transport": "stop_position", "railway": "tram_stop", "tram": "yes", "uic_name": "Gen\u00e8ve, Plainpalais", "uic_ref": "8587907", "wheelchair": "yes"}}, {"type": "node", "id": 1560291780, "lat": 46.1918899, "lon": 6.1438981, "tags": {"bus": "yes", "ele": "376", "name": "Augustins", "operator": "TPG", "public_transport": "stop_position", "railway": "tram_stop", "tram": "yes", "uic_name": "Gen\u00e8ve, Augustins", "uic_ref": "8592780", "wheelchair": "no"}}, {"type": "node", "id": 1560291806, "lat": 46.1948919, "lon": 6.1434307, "tags": {"bus": "yes", "ele": "376", "name": "Pont-d'Arve", "operator": "TPG", "public_transport": "stop_position", "railway": "tram_stop", "tram": "yes", "uic_name": "Gen\u00e8ve, Pont-d'Arve", "uic_ref": "8592887", "wheelchair": "no"}}, {"type": "node", "id": 1560291875, "lat": 46.1948886, "lon": 6.1433984, "tags": {"bus": "yes", "ele": "376", "name": "Pont-d'Arve", "operator": "TPG", "public_transport": "stop_position", "railway": "tram_stop", "tram": "yes", "uic_name": "Gen\u00e8ve, Pont-d'Arve", "uic_ref": "8592887", "wheelchair": "no"}}, {"type": "node", "id": 1560291911, "lat": 46.1918917, "lon": 6.1438658, "tags": {"bus": "yes", "ele": "376", "name": "Augustins", "operator": "TPG", "public_transport": "stop_position", "railway": "tram_stop", "tram": "yes", "uic_name": "Gen\u00e8ve, Augustins", "uic_ref": "8592780", "wheelchair": "no"}}, {"type": "node", "id": 1562689375, "lat": 46.1980879, "lon": 6.1426688, "tags": {"ele": "376", "name": "Plainpalais", "network": "TPG", "operator": "TPG", "public_transport": "stop_position", "railway": "tram_stop", "tram": "yes"}}, {"type": "node", "id": 1568217912, "lat": 46.2005501, "lon": 6.1407142, "tags": {"ele": "375", "name": "Cirque", "operator": "TPG", "public_transport": "stop_position", "railway": "tram_stop", "tram": "yes", "uic_name": "Gen\u00e8ve, Cirque", "uic_ref": "8592804"}}, {"type": "node", "id": 1568217948, "lat": 46.1984811, "lon": 6.1419683, "tags": {"ele": "376", "name": "Plainpalais", "operator": "TPG", "public_transport": "stop_position", "railway": "tram_stop", "tram": "yes", "uic_name": "Gen\u00e8ve, Plainpalais", "uic_ref": "8587907", "wheelchair": "yes"}}, {"type": "node", "id": 1572466631, "lat": 46.1926726, "lon": 6.1382744, "tags": {"ele": "373", "name": "Acacias", "operator": "TPG", "public_transport": "stop_position", "railway": "tram_stop", "tram": "yes", "uic_name": "Gen\u00e8ve, Acacias", "uic_ref": "8592774", "wheelchair": "yes"}}, {"type": "node", "id": 1572508529, "lat": 46.190386, "lon": 6.1338224, "tags": {"ele": "376", "name": "Industrielle", "operator": "TPG", "public_transport": "stop_position", "railway": "tram_stop", "tram": "yes", "uic_name": "Gen\u00e8ve, Industrielle", "uic_ref": "8592839", "wheelchair": "yes"}}, {"type": "node", "id": 1572508594, "lat": 46.1889521, "lon": 6.1309997, "tags": {"ele": "378", "name": "Pictet-Thellusson", "operator": "TPG", "public_transport": "stop_position", "railway": "tram_stop", "tram": "yes", "uic_name": "Carouge GE, Pictet-Thellusson", "uic_ref": "8592842", "wheelchair": "yes"}}, {"type": "node", "id": 1572830148, "lat": 46.1793526, "lon": 6.1214854, "tags": {"ele": "396", "name": "Lancy-Piscine", "operator": "TPG", "public_transport": "stop_position", "railway": "tram_stop", "tram": "yes", "uic_name": "Grand-Lancy, Lancy Piscine", "uic_ref": "8592991"}}, {"type": "node", "id": 1572830150, "lat": 46.1819969, "lon": 6.1206921, "tags": {"ele": "396", "name": "Grand-Lancy-Place du 1er-Ao\u00fbt", "operator": "TPG", "public_transport": "stop_position", "railway": "tram_stop", "tram": "yes", "uic_name": "Grand-Lancy, Place du 1er-Ao\u00fbt", "uic_ref": "8592983", "wheelchair": "yes"}}, {"type": "node", "id": 1572830269, "lat": 46.1819883, "lon": 6.1206443, "tags": {"ele": "396", "name": "Grand-Lancy-Place du 1er-Ao\u00fbt", "operator": "TPG", "public_transport": "stop_position", "railway": "tram_stop", "tram": "yes", "uic_name": "Grand-Lancy, Place du 1er-Ao\u00fbt", "uic_ref": "8592983", "wheelchair": "yes"}}, {"type": "node", "id": 1572830282, "lat": 46.1793588, "lon": 6.1215345, "tags": {"ele": "396", "name": "Lancy-Piscine", "operator": "TPG", "public_transport": "stop_position", "railway": "tram_stop", "tram": "yes", "uic_name": "Grand-Lancy, Lancy Piscine", "uic_ref": "8592991"}}, {"type": "node", "id": 1572830351, "lat": 46.1715031, "lon": 6.1253702, "tags": {"ele": "400", "layer": "1", "name": "Tr\u00e8fle-Blanc", "operator": "TPG", "public_transport": "stop_position", "railway": "tram_stop", "tram": "yes", "uic_name": "Plan-les-Ouates, Tr\u00e8fle-Blanc", "uic_ref": "8593070", "wheelchair": "yes"}}, {"type": "node", "id": 1572830388, "lat": 46.1730185, "lon": 6.1235385, "tags": {"ele": "398", "name": "Pontets", "operator": "TPG", "public_transport": "stop_position", "railway": "tram_stop", "tram": "yes", "uic_name": "Grand-Lancy, Pontets", "uic_ref": "8592992", "wheelchair": "yes"}}, {"type": "node", "id": 1572830428, "lat": 46.1715266, "lon": 6.1253511, "tags": {"ele": "400", "layer": "1", "name": "Tr\u00e8fle-Blanc", "operator": "TPG", "public_transport": "stop_position", "railway": "tram_stop", "tram": "yes", "uic_name": "Plan-les-Ouates, Tr\u00e8fle-Blanc", "uic_ref": "8593070", "wheelchair": "yes"}}, {"type": "node", "id": 1573361816, "lat": 46.1760076, "lon": 6.1324529, "tags": {"ele": "391", "name": "De Sta\u00ebl", "operator": "TPG", "public_transport": "stop_position", "railway": "tram_stop", "tram": "yes", "uic_name": "Grand-Lancy, De-Sta\u00ebl", "uic_ref": "8592670", "wheelchair": "yes"}}, {"type": "node", "id": 1573361909, "lat": 46.1759859, "lon": 6.132484, "tags": {"ele": "391", "name": "De Sta\u00ebl", "operator": "TPG", "public_transport": "stop_position", "railway": "tram_stop", "tram": "yes", "uic_name": "Grand-Lancy, De-Sta\u00ebl", "uic_ref": "8592670", "wheelchair": "yes"}}, {"type": "node", "id": 1582369214, "lat": 46.2073026, "lon": 6.1396588, "tags": {"bus": "yes", "ele": "386", "highway": "bus_stop", "name": "Mercier", "operator": "TPG", "public_transport": "stop_position", "railway": "tram_stop", "tram": "yes", "uic_name": "Gen\u00e8ve, Mercier", "uic_ref": "8592841"}}, {"type": "node", "id": 1582369221, "lat": 46.1875704, "lon": 6.127136, "tags": {"ele": "376", "name": "Lancy-Pont-Rouge, Gare/\u00c9toile", "operator": "TPG", "public_transport": "stop_position", "railway": "tram_stop", "tram": "yes", "uic_name": "Lancy-Pont-Rouge, gare/Etoile", "uic_ref": "8592679", "wheelchair": "yes"}}, {"type": "node", "id": 1582369222, "lat": 46.1841358, "lon": 6.1218807, "tags": {"ele": "397", "name": "Lancy-Mairie", "operator": "TPG", "public_transport": "stop_position", "railway": "tram_stop", "tram": "yes", "uic_name": "Grand-Lancy, Mairie de Lancy", "uic_ref": "8587902", "wheelchair": "yes"}}, {"type": "node", "id": 1582369223, "lat": 46.1840941, "lon": 6.1218016, "tags": {"ele": "397", "name": "Lancy-Mairie", "operator": "TPG", "public_transport": "stop_position", "railway": "tram_stop", "tram": "yes", "uic_name": "Grand-Lancy, Mairie de Lancy", "uic_ref": "8587902", "wheelchair": "yes"}}, {"type": "node", "id": 1582369225, "lat": 46.1875438, "lon": 6.1272202, "tags": {"ele": "376", "name": "Lancy-Pont-Rouge, Gare/\u00c9toile", "operator": "TPG", "public_transport": "stop_position", "railway": "tram_stop", "tram": "yes", "uic_name": "Lancy-Pont-Rouge, gare/Etoile", "uic_ref": "8592679", "wheelchair": "yes"}}, {"type": "node", "id": 1582369226, "lat": 46.1946855, "lon": 6.1410282, "tags": {"ele": "376", "name": "Uni-Mail", "operator": "TPG", "public_transport": "stop_position", "railway": "tram_stop", "tram": "yes", "uic_name": "Gen\u00e8ve, Uni-Mail", "uic_ref": "8592915", "wheelchair": "yes"}}, {"type": "node", "id": 1588217407, "lat": 46.1797561, "lon": 6.1383547, "tags": {"ele": "423", "name": "Carouge-Rondeau", "operator": "TPG", "public_transport": "stop_position", "railway": "tram_stop", "tram": "yes", "uic_name": "Carouge GE, Rondeau", "uic_ref": "8587437"}}, {"type": "node", "id": 1588217455, "lat": 46.1868423, "lon": 6.1403534, "tags": {"addr:city": "Carouge", "addr:postcode": "1227", "addr:street": "Rue du Pont Neuf", "ele": "379", "name": "Armes", "operator": "TPG", "public_transport": "stop_position", "railway": "tram_stop", "tram": "yes", "uic_name": "Carouge GE, Armes", "uic_ref": "8592669", "wheelchair": "no"}}, {"type": "node", "id": 1588217482, "lat": 46.1844444, "lon": 6.1403865, "tags": {"ele": "381", "name": "Carouge-March\u00e9", "operator": "TPG", "public_transport": "stop_position", "railway": "tram_stop", "tram": "yes", "uic_name": "Carouge GE, March\u00e9", "uic_ref": "8592677", "wheelchair": "limited"}}, {"type": "node", "id": 1588217493, "lat": 46.1812941, "lon": 6.1408413, "tags": {"ele": "385", "name": "Ancienne", "operator": "TPG", "public_transport": "stop_position", "railway": "tram_stop", "tram": "yes", "uic_name": "Carouge GE, Ancienne", "uic_ref": "8592668", "wheelchair": "limited"}}, {"type": "node", "id": 1588217545, "lat": 46.1812881, "lon": 6.1408793, "tags": {"ele": "385", "name": "Ancienne", "operator": "TPG", "public_transport": "stop_position", "railway": "tram_stop", "tram": "yes", "uic_name": "Carouge GE, Ancienne", "uic_ref": "8592668", "website": "https://www.tpg.ch/", "wheelchair": "limited"}}, {"type": "node", "id": 1588217556, "lat": 46.1868017, "lon": 6.1403339, "tags": {"ele": "379", "name": "Armes", "operator": "TPG", "public_transport": "stop_position", "railway": "tram_stop", "tram": "yes", "uic_name": "Carouge GE, Armes", "uic_ref": "8592669", "wheelchair": "no"}}, {"type": "node", "id": 1588217646, "lat": 46.1889814, "lon": 6.1430656, "tags": {"ele": "378", "name": "Blanche", "operator": "TPG", "public_transport": "stop_position", "railway": "tram_stop", "tram": "yes", "uic_name": "Gen\u00e8ve, Blanche", "uic_ref": "8592789", "wheelchair": "yes"}}, {"type": "node", "id": 1588217694, "lat": 46.1889866, "lon": 6.1430341, "tags": {"ele": "378", "name": "Blanche", "operator": "TPG", "public_transport": "stop_position", "railway": "tram_stop", "tram": "yes", "uic_name": "Gen\u00e8ve, Blanche", "uic_ref": "8592789", "wheelchair": "yes"}}, {"type": "node", "id": 1588217702, "lat": 46.1837452, "lon": 6.1409187, "tags": {"ele": "381", "name": "Carouge-March\u00e9", "operator": "TPG", "public_transport": "stop_position", "railway": "tram_stop", "tram": "yes", "uic_name": "Carouge GE, March\u00e9", "uic_ref": "8592677", "wheelchair": "limited"}}, {"type": "node", "id": 1588229436, "lat": 46.1797785, "lon": 6.138333, "tags": {"bus": "yes", "ele": "423", "name": "Carouge-Rondeau", "operator": "TPG", "public_transport": "stop_position", "railway": "tram_stop", "tram": "yes", "uic_name": "Carouge GE, Rondeau", "uic_ref": "8587437"}}, {"type": "node", "id": 1588229460, "lat": 46.1795543, "lon": 6.138849, "tags": {"ele": "423", "name": "Carouge-Rondeau", "note": "N'est plus utilis\u00e9 en service commercial", "operator": "TPG", "public_transport": "stop_position", "railway": "tram_stop", "tram": "yes", "uic_name": "Carouge GE, Rondeau", "uic_ref": "8587437"}}, {"type": "node", "id": 1588234221, "lat": 46.2009026, "lon": 6.1436088, "tags": {"ele": "382", "name": "Place de Neuve", "network": "Unireso", "network:wikidata": "Q1312883", "operator": "TPG", "public_transport": "stop_position", "railway": "tram_stop", "tram": "yes", "uic_name": "Gen\u00e8ve, Place de Neuve", "uic_ref": "8592885", "wheelchair": "yes"}}, {"type": "node", "id": 1591450290, "lat": 46.1924829, "lon": 6.2063807, "tags": {"ele": "359", "name": "Moillesulaz", "operator": "TPG", "public_transport": "stop_position", "railway": "tram_stop", "ref": "A", "tram": "yes", "uic_name": "Th\u00f4nex, Moillesulaz", "uic_ref": "8593118"}}, {"type": "node", "id": 1591450308, "lat": 46.2000431, "lon": 6.1679867, "tags": {"ele": "410", "name": "Amandolier", "operator": "TPG", "public_transport": "stop_position", "railway": "tram_stop", "tram": "yes", "uic_name": "Gen\u00e8ve, Amandolier", "uic_ref": "8592778", "wheelchair": "yes"}}, {"type": "node", "id": 2976596841, "lat": 46.1791586, "lon": 6.1386265, "tags": {"ele": "423", "name": "Carouge-Rondeau", "note": "N'est plus utilis\u00e9 en service commercial", "operator": "TPG", "public_transport": "stop_position", "railway": "tram_stop", "tram": "yes", "uic_name": "Carouge GE, Rondeau", "uic_ref": "8587437"}}, {"type": "node", "id": 3606128564, "lat": 46.1730137, "lon": 6.1235017, "tags": {"ele": "398", "name": "Pontets", "operator": "TPG", "public_transport": "stop_position", "railway": "tram_stop", "tram": "yes", "uic_name": "Grand-Lancy, Pontets", "uic_ref": "8592992", "wheelchair": "yes"}}, {"type": "node", "id": 6025036473, "lat": 46.1737456, "lon": 6.1297251, "tags": {"name": "Lancy-Bachet-Gare", "network": "unireso", "operator": "TPG", "public_transport": "stop_position", "railway": "tram_stop", "tram": "yes"}}, {"type": "node", "id": 6025036475, "lat": 46.1738112, "lon": 6.1295196, "tags": {"name": "Lancy-Bachet-Gare", "network": "unireso", "operator": "TPG", "public_transport": "stop_position", "railway": "tram_stop", "tram": "yes"}}, {"type": "node", "id": 6026340232, "lat": 46.1770151, "lon": 6.1221286, "tags": {"ele": "397", "name": "Palettes", "operator": "TPG", "public_transport": "stop_position", "railway": "tram_stop", "tram": "yes", "uic_name": "Grand-Lancy, Palettes", "uic_ref": "8592988", "wheelchair": "yes"}}, {"type": "node", "id": 6026340234, "lat": 46.1766244, "lon": 6.1221912, "tags": {"ele": "397", "name": "Palettes", "operator": "TPG", "public_transport": "stop_position", "railway": "tram_stop", "tram": "yes", "uic_name": "Grand-Lancy, Palettes", "uic_ref": "8592988", "wheelchair": "yes"}}, {"type": "node", "id": 6066381381, "lat": 46.1796318, "lon": 6.0779224, "tags": {"ele": "433", "name": "Bernex, Pr\u00e9-Marais", "network": "TPG", "public_transport": "stop_position", "railway": "tram_stop", "start_date": "07-2021", "tram": "yes", "uic_name": "Bernex, Pr\u00e9-Marais", "uic_ref": "8508132"}}, {"type": "node", "id": 6066381586, "lat": 46.1783556, "lon": 6.0730137, "tags": {"ele": "433", "local_ref": "I", "name": "Luchepelet", "network": "TPG", "public_transport": "stop_position", "railway": "tram_stop", "ref": "I", "start_date": "07-2021", "tram": "yes", "uic_name": "Bernex, Luchepelet", "uic_ref": "8508130"}}, {"type": "node", "id": 6066381605, "lat": 46.1795753, "lon": 6.0779445, "tags": {"ele": "433", "name": "Bernex, Pr\u00e9-Marais", "network": "TPG", "public_transport": "stop_position", "railway": "tram_stop", "start_date": "07-2021", "tram": "yes", "uic_name": "Bernex, Pr\u00e9-Marais", "uic_ref": "8508132"}}, {"type": "node", "id": 6066381610, "lat": 46.1783027, "lon": 6.0730545, "tags": {"ele": "433", "local_ref": "H", "name": "Luchepelet", "network": "TPG", "public_transport": "stop_position", "railway": "tram_stop", "ref": "H", "start_date": "07-2021", "tram": "yes", "uic_name": "Bernex, Luchepelet", "uic_ref": "8508130"}}, {"type": "node", "id": 6267559033, "lat": 46.1750347, "lon": 6.0607721, "tags": {"ele": "434", "name": "Vailly", "network": "Unireso", "operator": "TPG", "public_transport": "stop_position", "railway": "tram_stop", "start_date": "07-2021", "tram": "yes", "uic_name": "Bernex, Vailly", "uic_ref": "8508134"}}, {"type": "node", "id": 6267559034, "lat": 46.1749748, "lon": 6.0607885, "tags": {"ele": "434", "name": "Vailly", "network": "Unireso", "operator": "TPG", "public_transport": "stop_position", "railway": "tram_stop", "start_date": "07-2021", "tram": "yes", "uic_name": "Bernex, Vailly", "uic_ref": "8508134"}}, {"type": "node", "id": 6267559036, "lat": 46.1760724, "lon": 6.0664733, "tags": {"ele": "436", "name": "Bernex, Hainard", "network": "TPG", "public_transport": "stop_position", "railway": "tram_stop", "start_date": "07-2021", "tram": "yes", "uic_name": "Bernex, Hainard", "uic_ref": "8508128"}}, {"type": "node", "id": 6267559037, "lat": 46.1760174, "lon": 6.066508, "tags": {"ele": "436", "name": "Bernex, Hainard", "network": "TPG", "public_transport": "stop_position", "railway": "tram_stop", "start_date": "07-2021", "tram": "yes", "uic_name": "Bernex, Hainard", "uic_ref": "8508128"}}, {"type": "node", "id": 6267573551, "lat": 46.1923732, "lon": 6.2063647, "tags": {"ele": "359", "name": "Moillesulaz", "operator": "TPG", "public_transport": "stop_position", "railway": "tram_stop", "ref": "C", "start_date": "2019-12-15", "tram": "yes", "uic_name": "Th\u00f4nex, Moillesulaz", "uic_ref": "8593118"}}, {"type": "node", "id": 6267573552, "lat": 46.1923433, "lon": 6.2063593, "tags": {"ele": "359", "name": "Moillesulaz", "operator": "TPG", "public_transport": "stop_position", "railway": "tram_stop", "ref": "D", "start_date": "2019-12-15", "tram": "yes", "uic_name": "Th\u00f4nex, Moillesulaz", "uic_ref": "8593118"}}, {"type": "node", "id": 6362591694, "lat": 46.1878768, "lon": 6.1246742, "tags": {"name": "Lancy-Pont-Rouge-Gare", "network": "TPG", "public_transport": "stop_position", "railway": "tram_stop", "tram": "yes"}}, {"type": "node", "id": 6906559738, "lat": 46.2001232, "lon": 6.164006, "tags": {"name": "Gen\u00e8ve-Eaux-Vives-Gare", "network": "unireso", "operator": "TPG", "public_transport": "stop_position", "railway": "tram_stop", "start_date": "2019-12-15", "tram": "yes"}}, {"type": "node", "id": 6906559739, "lat": 46.2000992, "lon": 6.1647184, "tags": {"name": "Gen\u00e8ve-Eaux-Vives-Gare", "network": "unireso", "operator": "TPG", "public_transport": "stop_position", "railway": "tram_stop", "start_date": "2019-12-15", "tram": "yes"}}, {"type": "node", "id": 7574616590, "lat": 46.1988485, "lon": 6.180351, "tags": {"ele": "422", "name": "Grangettes", "operator": "TPG", "public_transport": "stop_position", "railway": "tram_stop", "tram": "yes", "uic_name": "Ch\u00eane-Bougeries, Grangettes", "uic_ref": "8592694"}}, {"type": "node", "id": 7574616591, "lat": 46.1988739, "lon": 6.1803558, "tags": {"ele": "422", "name": "Grangettes", "operator": "TPG", "public_transport": "stop_position", "railway": "tram_stop", "tram": "yes", "uic_name": "Ch\u00eane-Bougeries, Grangettes", "uic_ref": "8592694"}}, {"type": "node", "id": 8223874898, "lat": 46.1794159, "lon": 6.0820372, "tags": {"local_ref": "D", "name": "Bernex-P+R", "network": "TPG", "operator": "TPG", "public_transport": "stop_position", "railway": "tram_stop", "ref": "D", "tram": "yes"}}, {"type": "node", "id": 8223874899, "lat": 46.1793591, "lon": 6.0820116, "tags": {"local_ref": "E", "name": "Bernex-P+R", "network": "TPG", "operator": "TPG", "public_transport": "stop_position", "railway": "tram_stop", "ref": "E", "tram": "yes"}}, {"type": "node", "id": 8343544505, "lat": 46.187875, "lon": 6.124626, "tags": {"name": "Lancy-Pont-Rouge-Gare", "network": "TPG", "public_transport": "stop_position", "railway": "tram_stop", "tram": "yes"}}, {"type": "node", "id": 8343544539, "lat": 46.2222985, "lon": 6.1391943, "tags": {"ele": "372", "name": "Nations", "operator": "TPG", "public_transport": "stop_position", "railway": "tram_stop", "tram": "yes", "uic_name": "Gen\u00e8ve, Nations", "uic_ref": "8587058", "wheelchair": "yes"}}, {"type": "node", "id": 9007722821, "lat": 46.1769954, "lon": 6.1219798, "tags": {"ele": "397", "name": "Palettes", "operator": "TPG", "public_transport": "stop_position", "railway": "tram_stop", "tram": "yes", "uic_name": "Grand-Lancy, Palettes", "uic_ref": "8592988", "wheelchair": "yes"}}, {"type": "node", "id": 9864453950, "lat": 46.1767361, "lon": 6.1220043, "tags": {"ele": "397", "name": "Palettes", "operator": "TPG", "public_transport": "stop_position", "railway": "tram_stop", "tram": "yes", "uic_name": "Grand-Lancy, Palettes", "uic_ref": "8592988", "wheelchair": "yes"}}, {"type": "node", "id": 10997264578, "lat": 46.1976704, "lon": 6.1427656, "tags": {"name": "Plainpalais", "network": "tpg", "operator": "tpg", "public_transport": "stop_position", "railway": "tram_stop", "ref": "Arr\u00eat du tram historique", "tram": "yes"}}, {"type": "node", "id": 11392254225, "lat": 46.1714542, "lon": 6.1081321, "tags": {"name": "Le Rolliet", "operator": "TPG", "public_transport": "stop_position", "railway": "tram_stop", "tram": "yes", "uic_name": "Plan-les-Ouates, Le Rolliet", "wheelchair": "yes"}}, {"type": "node", "id": 11392254226, "lat": 46.1714302, "lon": 6.1081562, "tags": {"name": "Le Rolliet", "operator": "TPG", "public_transport": "stop_position", "railway": "tram_stop", "tram": "yes", "uic_name": "Plan-les-Ouates, Le Rolliet", "wheelchair": "yes"}}, {"type": "node", "id": 11392254227, "lat": 46.1663908, "lon": 6.1027619, "tags": {"name": "ZIPLO", "operator": "TPG", "public_transport": "stop_position", "railway": "tram_stop", "tram": "yes", "uic_name": "Plan-les-Ouates, ZIPLO", "wheelchair": "yes"}}, {"type": "node", "id": 11392254228, "lat": 46.1663686, "lon": 6.1027876, "tags": {"name": "ZIPLO", "operator": "TPG", "public_transport": "stop_position", "railway": "tram_stop", "tram": "yes", "uic_name": "Plan-les-Ouates, ZIPLO", "wheelchair": "yes"}}, {"type": "node", "id": 11392254229, "lat": 46.1750527, "lon": 6.1158861, "tags": {"name": "Cur\u00e9-Baud", "operator": "TPG", "public_transport": "stop_position", "railway": "tram_stop", "tram": "yes", "uic_name": "Grand-Lancy, Cur\u00e9-Baud", "wheelchair": "yes"}}, {"type": "node", "id": 11392254230, "lat": 46.1750313, "lon": 6.1159213, "tags": {"name": "Cur\u00e9-Baud", "operator": "TPG", "public_transport": "stop_position", "railway": "tram_stop", "tram": "yes", "uic_name": "Grand-Lancy, Cur\u00e9-Baud", "wheelchair": "yes"}}]