[{"type": "node", "id": 701851300, "lat": 46.2339717, "lon": 6.0557211, "tags": {"fee": "no", "museum": "science", "name": "Globe de la Science et de l'Innovation", "name:en": "The Globe of Science and Innovation", "name:es": "Globo de la Ciencia y de la Innovaci\u00f3n", "name:fr": "Globe de la Science et de L'innovation", "opening_hours": "Tu-Su 08:00-18:00", "operator": "CERN", "operator:wikipedia": "en:CERN", "toilets:wheelchair": "yes", "tourism": "museum", "website": "https://visit.cern/universe-of-particles", "wheelchair": "yes", "wikidata": "Q7736814", "wikipedia": "en:The Globe of Science and Innovation"}}, {"type": "node", "id": 981690477, "lat": 46.1842913, "lon": 6.1391515, "tags": {"addr:city": "Carouge (GE)", "addr:housenumber": "2", "addr:postcode": "1227", "addr:street": "Place de Sardaigne", "fee": "no", "name": "Mus\u00e9e de Carouge", "opening_hours": "Tu-Su 14:00-18:00", "tourism": "museum", "website": "https://www.carouge.ch/musee", "wheelchair": "yes"}}, {"type": "node", "id": 983366077, "lat": 46.1982817, "lon": 6.1089823, "tags": {"addr:housenumber": "4", "addr:postcode": "1213", "addr:street": "Route du Pont-Butin", "name": "Mus\u00e9e des EAN", "name:de": "Arquebusemuseum", "name:fr": "Mus\u00e9e des EAN", "phone": "+41227923146", "tourism": "museum", "website": "https://www.arquebuse.ch/gen_pages.php?f=musee_ferme.txt"}}, {"type": "node", "id": 1768216261, "lat": 46.2208287, "lon": 6.1521265, "tags": {"fee": "no", "name": "Mus\u00e9e d'histoire des sciences", "name:ru": "\u041c\u0443\u0437\u0435\u0439 \u0435\u0441\u0442\u0435\u0441\u0442\u0432\u0435\u043d\u043d\u043e\u0439 \u0438\u0441\u0442\u043e\u0440\u0438\u0438", "name:zh": "\u79d1\u5b66\u5386\u53f2\u535a\u7269\u9986", "opening_hours": "We-Mo 10:00-17:00", "source": "survey", "tourism": "museum", "wikidata": "Q19824862"}}, {"type": "node", "id": 2021513198, "lat": 46.1988283, "lon": 6.1375228, "tags": {"addr:city": "Gen\u00e8ve", "addr:housenumber": "10", "addr:postcode": "1205", "addr:street": "Rue des Vieux-Grenadiers", "alt_name": "Mus\u00e9e d'art Moderne et Contemporain", "contact:facebook": "https://www.facebook.com/mamcogeneve/", "contact:instagram": "https://www.instagram.com/mamco_geneve/", "contact:twitter": "https://twitter.com/mamco_artmuseum", "email": "info@mamco.ch", "fee": "yes", "museum": "art", "name": "MAMCO", "official_name": "Mus\u00e9e d\u2019Art Moderne et Contemporain", "opening_hours": "Tu-Fr 12:00-18:00; Sa-Su 11:00-18:00", "phone": "+41 22 320 61 22", "short_name": "MAMCO", "source": "survey", "tourism": "museum", "website": "https://www.mamco.ch/", "wikidata": "Q3329535", "wikipedia": "en:MAMCO"}}, {"type": "node", "id": 2178312845, "lat": 46.225517, "lon": 6.0830497, "tags": {"addr:city": "Meyrin", "addr:housename": "Vivarium de Meyrin", "addr:housenumber": "32A", "addr:postcode": "1217", "addr:street": "Rue du Cardinal-Journet", "fee": "yes", "name": "Vivarium de Meyrin", "opening_hours": "Mo-Fr 14:00-17:00; Sa,Su 10:00-17:00", "phone": "+41 22 785 60 60", "tourism": "museum", "website": "http://www.vivariumdemeyrin.ch/", "wheelchair": "yes"}}, {"type": "node", "id": 2362831289, "lat": 46.2013411, "lon": 6.1465766, "tags": {"addr:city": "Gen\u00e8ve", "addr:housenumber": "40", "addr:postcode": "1204", "addr:street": "Grand-Rue", "fee": "yes", "museum": "house", "name": "Maison Rousseau et Litt\u00e9rature", "name:en": "House of Rousseau and Literature", "name:zh": "\u5362\u68ad\u6545\u5c45", "opening_hours": "Tu-Fr 08:00-18:00; Sa,Su 11:00-18:00", "tourism": "museum", "website": "https://m-r-l.ch/"}}, {"type": "node", "id": 3058060779, "lat": 46.2354623, "lon": 6.0558414, "tags": {"name": "ATLAS Visitors Centre", "tourism": "museum", "website": "https://atlas.cern/Discover/Visit"}}, {"type": "node", "id": 3436729151, "lat": 46.1984004, "lon": 6.1382674, "tags": {"addr:city": "Gen\u00e8ve", "addr:housenumber": "7", "addr:postcode": "1205", "addr:street": "Rue des Vieux-Grenadiers", "fee": "yes", "museum": "watches", "name": "Patek Philippe Museum", "name:ru": "\u041c\u0443\u0437\u0435\u0439 Patek Philippe", "name:zh": "\u767e\u8fbe\u7fe1\u4e3d\u949f\u8868\u535a\u7269\u9986", "opening_hours": "Tu-Fr 14:00-18:00; Sa 10:00-18:00", "operator": "Patek Philippe", "operator:type": "business", "phone": "+41 22 8070910", "tourism": "museum", "website": "http://www.patekmuseum.com/", "wikidata": "Q3329302"}}, {"type": "node", "id": 4681396472, "lat": 46.202032, "lon": 6.1466978, "tags": {"addr:city": "Gen\u00e8ve", "addr:housenumber": "10", "addr:postcode": "1204", "addr:street": "Rue Jean-Calvin", "description": "Arts de l\u2019Antiquit\u00e9, de l\u2019Afrique, de l\u2019Asie et de l\u2019Oc\u00e9anie", "email": "musee@barbier-mueller.ch", "fee": "yes", "museum": "art", "name": "Mus\u00e9e Barbier-Mueller", "opening_hours": "11:00-17:00", "phone": "+41 22 312 02 70", "tourism": "museum", "website": "https://www.barbier-mueller.ch/", "wikidata": "Q3329082", "wikipedia": "fr:Mus\u00e9e Barbier-Mueller"}}, {"type": "node", "id": 4755372834, "lat": 46.1991099, "lon": 6.1374734, "tags": {"addr:housenumber": "28", "addr:postcode": "1205", "addr:street": "Rue des Bains", "fee": "yes", "name": "Centre de la photographie", "name:en": "Centre of Photography", "name:fr": "Centre de la photographie", "opening_hours": "Tu-Su 11:00-18:00", "phone": "+41 22 329 28 35", "tourism": "museum", "website": "https://www.centrephotogeneve.ch/"}}, {"type": "node", "id": 5475773723, "lat": 46.1921228, "lon": 6.154831, "tags": {"addr:housenumber": "6", "addr:postcode": "1206", "addr:street": "Avenue Dumas", "email": "fondation@nufnuf-art.ch", "fee": "no", "internet_access": "wlan", "museum": "art", "name": "nufnuf-art fondation", "name:de": "nufnuf-art stiftung", "name:en": "nufnuf-art foundation", "opening_hours": "\"Sur rendez-vous\"", "phone": "+41786036999", "tourism": "museum", "website": "https://nufnuf-art.ch/"}}, {"type": "node", "id": 7346891003, "lat": 46.1935215, "lon": 6.1515108, "tags": {"addr:housenumber": "30", "contact:website": "https://scienscope.unige.ch/bioscope/", "fee": "no", "museum": "science", "name": "Bioscope", "operator": "University de Gen\u00e8ve", "operator:type": "public", "tourism": "museum", "website": "https://scienscope.unige.ch/bioscope/"}}, {"type": "node", "id": 9519037975, "lat": 46.2053806, "lon": 6.1448741, "tags": {"addr:city": "Gen\u00e8ve", "addr:housenumber": "1", "addr:postcode": "1204", "addr:street": "Pont de la Machine", "check_date": "2024-10-16", "email": "exposition@sig-ge.ch", "fee": "no", "museum": "science", "name": "Quartier Libre Services Industriels de Gen\u00e8ve", "opening_hours": "Mo-Su 10:00-17:00", "operator": "Services Industriels de Gen\u00e8ve", "operator:type": "public", "phone": "+41 22 420 75 75", "short_name": "Quartier Libre SIG", "tourism": "museum", "website": "https://ww2.sig-ge.ch/a-propos-de-sig/nous-connaitre/sites_expositions/quartier-libre-pont-de-la-machine", "wheelchair": "yes"}}, {"type": "node", "id": 11745555850, "lat": 46.2336734, "lon": 6.0566427, "tags": {"addr:city": "Meyrin", "addr:housenumber": "1", "addr:postcode": "1217", "addr:street": "Esplanade des Particules", "fee": "no", "museum": "science", "name": "CERN Science Gateway", "opening_hours": "Tu-Su 08:00-18:00", "operator": "CERN", "operator:wikipedia": "en:CERN", "tourism": "museum", "website": "https://visits.web.cern.ch/science-gateway", "wheelchair": "yes"}}]